CCSDS_OMM_VERS = 2.0
CREATION_DATE  = 
ORIGINATOR     = 

OBJECT_NAME    = SOYUZ-MS 28
OBJECT_ID      = 2025-275A
CENTER_NAME    = EARTH
REF_FRAME      = TEME
TIME_SYSTEM    = UTC
MEAN_ELEMENT_THEORY = SGP/SGP4

EPOCH          = 2025-12-13T13:45:03.960000
MEAN_MOTION    = 15.49569091
ECCENTRICITY   = .00032302
INCLINATION    = 51.6303
RA_OF_ASC_NODE = 138.3533
ARG_OF_PERICENTER = 244.1175
MEAN_ANOMALY   = 115.9481

EPHEMERIS_TYPE = 0
CLASSIFICATION_TYPE = U
NORAD_CAT_ID   = 66664
ELEMENT_SET_NO = 999
REV_AT_EPOCH   = 128
BSTAR          = .23044054E-3
MEAN_MOTION_DOT = .12521E-3
MEAN_MOTION_DDOT = 0

CCSDS_OMM_VERS = 2.0
CREATION_DATE  = 
ORIGINATOR     = 

OBJECT_NAME    = 1998-067XS
OBJECT_ID      = 1998-067XS
CENTER_NAME    = EARTH
REF_FRAME      = TEME
TIME_SYSTEM    = UTC
MEAN_ELEMENT_THEORY = SGP/SGP4

EPOCH          = 2025-12-13T16:42:15.922368
MEAN_MOTION    = 15.50633628
ECCENTRICITY   = .00035389
INCLINATION    = 51.6301
RA_OF_ASC_NODE = 137.6756
ARG_OF_PERICENTER = 207.2651
MEAN_ANOMALY   = 152.8153

EPHEMERIS_TYPE = 0
CLASSIFICATION_TYPE = U
NORAD_CAT_ID   = 66906
ELEMENT_SET_NO = 999
REV_AT_EPOCH   = 176
BSTAR          = .54648789E-3
MEAN_MOTION_DOT = .31569E-3
MEAN_MOTION_DDOT = 0

CCSDS_OMM_VERS = 2.0
CREATION_DATE  = 
ORIGINATOR     = 

OBJECT_NAME    = 1998-067XT
OBJECT_ID      = 1998-067XT
CENTER_NAME    = EARTH
REF_FRAME      = TEME
TIME_SYSTEM    = UTC
MEAN_ELEMENT_THEORY = SGP/SGP4

EPOCH          = 2025-12-13T16:37:31.235232
MEAN_MOTION    = 15.51604707
ECCENTRICITY   = .00043667
INCLINATION    = 51.6303
RA_OF_ASC_NODE = 137.6541
ARG_OF_PERICENTER = 232.3065
MEAN_ANOMALY   = 127.7529

EPHEMERIS_TYPE = 0
CLASSIFICATION_TYPE = U
NORAD_CAT_ID   = 66907
ELEMENT_SET_NO = 999
REV_AT_EPOCH   = 176
BSTAR          = .11074189E-2
MEAN_MOTION_DOT = .67037E-3
MEAN_MOTION_DDOT = 0

CCSDS_OMM_VERS = 2.0
CREATION_DATE  = 
ORIGINATOR     = 

OBJECT_NAME    = 1998-067XU
OBJECT_ID      = 1998-067XU
CENTER_NAME    = EARTH
REF_FRAME      = TEME
TIME_SYSTEM    = UTC
MEAN_ELEMENT_THEORY = SGP/SGP4

EPOCH          = 2025-12-13T16:36:58.397184
MEAN_MOTION    = 15.51689462
ECCENTRICITY   = .0004467
INCLINATION    = 51.6298
RA_OF_ASC_NODE = 137.6510
ARG_OF_PERICENTER = 231.5910
MEAN_ANOMALY   = 128.4679

EPHEMERIS_TYPE = 0
CLASSIFICATION_TYPE = U
NORAD_CAT_ID   = 66908
ELEMENT_SET_NO = 999
REV_AT_EPOCH   = 176
BSTAR          = .11749289E-2
MEAN_MOTION_DOT = .7141E-3
MEAN_MOTION_DDOT = 0

CCSDS_OMM_VERS = 2.0
CREATION_DATE  = 
ORIGINATOR     = 

OBJECT_NAME    = SILVERSAT
OBJECT_ID      = 1998-067XV
CENTER_NAME    = EARTH
REF_FRAME      = TEME
TIME_SYSTEM    = UTC
MEAN_ELEMENT_THEORY = SGP/SGP4

EPOCH          = 2025-12-13T16:36:20.876256
MEAN_MOTION    = 15.51801579
ECCENTRICITY   = .00043516
INCLINATION    = 51.6299
RA_OF_ASC_NODE = 137.6482
ARG_OF_PERICENTER = 233.7111
MEAN_ANOMALY   = 126.3477

EPHEMERIS_TYPE = 0
CLASSIFICATION_TYPE = U
NORAD_CAT_ID   = 66909
ELEMENT_SET_NO = 999
REV_AT_EPOCH   = 176
BSTAR          = .12037928E-2
MEAN_MOTION_DOT = .7349E-3
MEAN_MOTION_DDOT = 0

CCSDS_OMM_VERS = 2.0
CREATION_DATE  = 
ORIGINATOR     = 

OBJECT_NAME    = 1998-067XW
OBJECT_ID      = 1998-067XW
CENTER_NAME    = EARTH
REF_FRAME      = TEME
TIME_SYSTEM    = UTC
MEAN_ELEMENT_THEORY = SGP/SGP4

EPOCH          = 2025-12-13T16:34:05.866752
MEAN_MOTION    = 15.51910394
ECCENTRICITY   = .00050843
INCLINATION    = 51.6299
RA_OF_ASC_NODE = 137.6381
ARG_OF_PERICENTER = 213.9756
MEAN_ANOMALY   = 146.0909

EPHEMERIS_TYPE = 0
CLASSIFICATION_TYPE = U
NORAD_CAT_ID   = 66910
ELEMENT_SET_NO = 999
REV_AT_EPOCH   = 176
BSTAR          = .1065728E-2
MEAN_MOTION_DOT = .65203E-3
MEAN_MOTION_DDOT = 0

CCSDS_OMM_VERS = 2.0
CREATION_DATE  = 
ORIGINATOR     = 

OBJECT_NAME    = 1998-067XX
OBJECT_ID      = 1998-067XX
CENTER_NAME    = EARTH
REF_FRAME      = TEME
TIME_SYSTEM    = UTC
MEAN_ELEMENT_THEORY = SGP/SGP4

EPOCH          = 2025-12-13T16:32:49.998912
MEAN_MOTION    = 15.52189321
ECCENTRICITY   = .00048024
INCLINATION    = 51.6299
RA_OF_ASC_NODE = 137.6321
ARG_OF_PERICENTER = 215.3057
MEAN_ANOMALY   = 144.7616

EPHEMERIS_TYPE = 0
CLASSIFICATION_TYPE = U
NORAD_CAT_ID   = 66911
ELEMENT_SET_NO = 999
REV_AT_EPOCH   = 175
BSTAR          = .12499181E-2
MEAN_MOTION_DOT = .77443E-3
MEAN_MOTION_DDOT = 0

CCSDS_OMM_VERS = 2.0
CREATION_DATE  = 
ORIGINATOR     = 

OBJECT_NAME    = 1998-067XY
OBJECT_ID      = 1998-067XY
CENTER_NAME    = EARTH
REF_FRAME      = TEME
TIME_SYSTEM    = UTC
MEAN_ELEMENT_THEORY = SGP/SGP4

EPOCH          = 2025-12-13T16:39:11.573280
MEAN_MOTION    = 15.51258263
ECCENTRICITY   = .00045018
INCLINATION    = 51.6303
RA_OF_ASC_NODE = 137.6613
ARG_OF_PERICENTER = 228.8979
MEAN_ANOMALY   = 131.1622

EPHEMERIS_TYPE = 0
CLASSIFICATION_TYPE = U
NORAD_CAT_ID   = 66912
ELEMENT_SET_NO = 999
REV_AT_EPOCH   = 175
BSTAR          = .89167001E-3
MEAN_MOTION_DOT = .53126E-3
MEAN_MOTION_DDOT = 0

