SOYUZ-MS 28             
1 66664U 25275A   25347.57296250  .00012521  00000+0  23044-3 0  9992
2 66664  51.6303 138.3533 0003230 244.1175 115.9481 15.49569091  1285
1998-067XS              
1 66906U 98067XS  25347.69601762  .00031569  00000+0  54649-3 0  9999
2 66906  51.6301 137.6756 0003538 207.2651 152.8153 15.50633628  1760
1998-067XT              
1 66907U 98067XT  25347.69272263  .00067037  00000+0  11074-2 0  9993
2 66907  51.6303 137.6541 0004366 232.3065 127.7529 15.51604707  1768
1998-067XU              
1 66908U 98067XU  25347.69234256  .00071410  00000+0  11749-2 0  9993
2 66908  51.6298 137.6510 0004467 231.5910 128.4679 15.51689462  1765
SILVERSAT               
1 66909U 98067XV  25347.69190829  .00073490  00000+0  12038-2 0  9993
2 66909  51.6299 137.6482 0004351 233.7111 126.3477 15.51801579  1762
1998-067XW              
1 66910U 98067XW  25347.69034568  .00065203  00000+0  10657-2 0  9990
2 66910  51.6299 137.6381 0005084 213.9756 146.0909 15.51910394  1766
1998-067XX              
1 66911U 98067XX  25347.68946758  .00077443  00000+0  12499-2 0  9998
2 66911  51.6299 137.6321 0004802 215.3057 144.7616 15.52189321  1756
1998-067XY              
1 66912U 98067XY  25347.69388395  .00053126  00000+0  89167-3 0  9996
2 66912  51.6303 137.6613 0004501 228.8979 131.1622 15.51258263  1753
